OBJECT_NAME,OBJECT_ID,EPOCH,MEAN_MOTION,ECCENTRICITY,INCLINATION,RA_OF_ASC_NODE,ARG_OF_PERICENTER,MEAN_ANOMALY,EPHEMERIS_TYPE,CLASSIFICATION_TYPE,NORAD_CAT_ID,ELEMENT_SET_NO,REV_AT_EPOCH,BSTAR,MEAN_MOTION_DOT,MEAN_MOTION_DDOT
STARLINK-34599,2025-157R,2026-06-15T12:34:40.499904,15.30208466,.0001028,53.1583,251.1570,96.2844,263.8274,0,U,64919,999,5110,.50381205E-3,.14596E-3,0
STARLINK-34069,2025-157S,2026-06-15T12:15:36.809280,15.34384216,.00010564,53.1596,251.0886,83.7373,276.3750,0,U,64920,999,5110,.68165817E-3,.22713E-3,0
STARLINK-34699,2025-157T,2026-06-15T13:06:59.328864,15.34389956,.00011445,53.1598,250.6015,94.4334,265.6799,0,U,64921,999,5111,.37655945E-3,.12363E-3,0
STARLINK-34700,2025-157U,2026-06-15T12:36:11.767680,15.30196187,.0000866,53.1587,251.1752,106.0675,254.0421,0,U,64922,999,5105,.48667476E-3,.1408E-3,0
STARLINK-34643,2025-157V,2026-06-15T12:03:29.500128,15.34398568,.00011203,53.1599,251.0322,84.1395,275.9735,0,U,64923,999,5110,.51641882E-3,.17111E-3,0
STARLINK-34199,2025-157W,2026-06-15T12:40:23.972736,15.31714704,.00014976,53.1588,250.4848,94.2972,265.8200,0,U,64924,999,5106,.46389604E-3,.14064E-3,0
STARLINK-34579,2025-157X,2026-06-15T12:06:31.432608,15.34391856,.00010972,53.1604,251.0468,88.6032,271.5096,0,U,64925,999,5110,.52161881E-3,.17284E-3,0
STARLINK-34543,2025-157Y,2026-06-15T12:13:39.135072,15.31702947,.00011093,53.1597,251.0781,82.4361,277.6766,0,U,64926,999,5105,.76672269E-3,.23504E-3,0
STARLINK-34661,2025-157Z,2026-06-15T12:00:27.723168,15.34395556,.00012995,53.1602,251.0115,56.8066,303.3061,0,U,64927,999,5082,.59561145E-3,.19798E-3,0
STARLINK-34248,2025-157AA,2026-06-15T14:00:01.999872,15.34373400,.00018269,53.1587,251.0206,85.1521,176.2153,0,U,64928,999,587,.66288737E-3,.22068E-3,0
STARLINK-34290,2025-157AB,2026-06-15T12:51:21.818880,15.30232762,.00012363,53.1582,251.2329,36.1131,323.9953,0,U,64929,999,5110,.48372777E-3,.14009E-3,0
STARLINK-34220,2025-157AC,2026-06-15T11:19:52.719744,15.31706776,.00010585,53.1592,250.8348,93.8083,266.3039,0,U,64930,999,5099,.61173941E-3,.18669E-3,0
STARLINK-34715,2025-157AD,2026-06-15T12:18:38.409984,15.34400750,.00011575,53.1597,251.0968,93.6107,266.5028,0,U,64931,999,5110,.65255218E-3,.21736E-3,0
STARLINK-34705,2025-158A,2026-06-15T14:08:18.816288,15.05657932,.00027678,97.3578,29.5864,84.1792,275.9751,0,U,64932,999,5008,.18337887E-3,.259E-4,0
STARLINK-34737,2025-158B,2026-06-15T13:52:21.692640,15.05663085,.00019296,97.3560,29.6017,84.7183,275.4264,0,U,64933,999,5008,.32466133E-3,.4632E-4,0
STARLINK-34775,2025-158C,2026-06-15T13:48:22.641120,15.05662940,.00023024,97.3561,29.6135,96.7054,263.4436,0,U,64934,999,5008,.15912455E-3,.224E-4,0
STARLINK-34726,2025-158D,2026-06-15T14:52:11.006976,15.05664056,.00027852,97.3581,29.7095,103.6663,256.4875,0,U,64935,999,5009,-.62526102E-4,-.96E-5,0
STARLINK-34529,2025-158E,2026-06-15T14:00:20.316672,15.05662413,.00021884,97.3571,29.6012,77.0915,283.0557,0,U,64936,999,5008,.285612E-3,.4067E-4,0
STARLINK-34743,2025-158F,2026-06-15T13:44:23.569728,15.05660910,.00024913,97.3564,29.6183,78.5356,281.6151,0,U,64937,999,5008,.26332648E-3,.3745E-4,0
STARLINK-34730,2025-158G,2026-06-15T14:24:16.507584,15.05662452,.00028258,97.3572,29.7292,97.5662,262.5887,0,U,64938,999,5009,.24824418E-3,.3528E-4,0
STARLINK-34714,2025-158H,2026-06-15T14:28:17.742432,15.05658068,.00026809,97.3568,29.7320,93.0627,267.0907,0,U,64939,999,4993,.22025008E-3,.3123E-4,0
STARLINK-34755,2025-158J,2026-06-15T13:58:48.450144,15.04843096,.0002293,97.3587,29.9484,88.6994,271.4496,0,U,64940,999,5010,.17230057E-3,.2377E-4,0
STARLINK-34740,2025-158K,2026-06-15T14:48:11.994336,15.05656963,.0002739,97.3560,29.7109,85.3389,274.8151,0,U,64941,999,5003,.20823659E-3,.2949E-4,0
STARLINK-34742,2025-158L,2026-06-15T14:40:13.518912,15.05658986,.00027511,97.3559,29.7109,88.6513,271.5030,0,U,64942,999,5009,.24753695E-3,.3517E-4,0
STARLINK-34719,2025-158M,2026-06-15T13:20:28.319712,15.05660018,.00023426,97.3577,29.6388,85.1537,274.9958,0,U,64943,999,5008,.35869443E-3,.5123E-4,0
STARLINK-34373,2025-158N,2026-06-15T14:04:19.647264,15.05657219,.00024333,97.3577,29.5979,84.6215,275.5290,0,U,64944,999,5008,.14503408E-3,.2036E-4,0
STARLINK-34758,2025-158P,2026-06-15T13:32:25.956384,15.05657132,.00024302,97.3562,29.6292,75.3441,284.8056,0,U,64945,999,5008,.3609642E-3,.5156E-4,0
STARLINK-34753,2025-158Q,2026-06-15T13:24:27.485280,15.05659715,.00027473,97.3582,29.6322,85.7895,274.3647,0,U,64946,999,5008,.31047292E-3,.4426E-4,0
STARLINK-34747,2025-158R,2026-06-15T13:40:24.173472,15.05662079,.00017703,97.3569,29.6229,87.9757,272.1674,0,U,64947,999,5008,.24488064E-3,.3479E-4,0
STARLINK-34630,2025-158S,2026-06-15T14:32:15.243072,15.05670659,.00028863,97.3562,29.7260,82.5885,277.5670,0,U,64948,999,5009,.28644905E-3,.4081E-4,0
STARLINK-34689,2025-158T,2026-06-15T14:12:18.080352,15.05656599,.00027469,97.3581,29.5894,84.2205,275.9336,0,U,64949,999,5008,.13595289E-3,.1905E-4,0
STARLINK-34586,2025-158U,2026-06-15T13:56:21.133824,15.05661166,.0002361,97.3582,29.6057,82.7576,277.3920,0,U,64950,999,5008,.30900149E-3,.4405E-4,0
STARLINK-34738,2025-158V,2026-06-15T14:44:14.185248,15.05662540,.00028864,97.3563,29.7168,91.6999,268.4560,0,U,64951,999,5009,.37084758E-3,.5299E-4,0
STARLINK-34744,2025-158W,2026-06-15T14:20:16.450368,15.05658743,.00029442,97.3585,29.5749,85.9692,274.1872,0,U,64952,999,5008,.19456879E-3,.2752E-4,0
STARLINK-34701,2025-158X,2026-06-15T14:36:14.493312,15.05657533,.00027115,97.3576,29.7214,88.5236,271.6303,0,U,64953,999,5009,.24386412E-3,.3464E-4,0
STARLINK-34761,2025-158Y,2026-06-15T14:16:17.247648,15.05657843,.00023008,97.3573,29.5868,85.3610,274.7880,0,U,64954,999,5008,.23586754E-3,.3348E-4,0
STARLINK-34732,2025-158Z,2026-06-15T13:28:26.767488,15.05661937,.00027867,97.3588,29.6339,81.1159,279.0384,0,U,64955,999,5008,.41687282E-3,.5965E-4,0
HULIANWANG DIGUI-35,2025-159A,2026-06-15T14:08:43.029024,13.24411626,.00048815,86.4944,282.9684,116.1201,244.0435,0,U,64956,999,4291,.45409439E-4,.34E-6,0
HULIANWANG DIGUI-36,2025-159B,2026-06-15T14:02:55.920480,13.24406985,.00017678,86.4964,283.0298,91.5851,268.5485,0,U,64957,999,4291,.82298432E-4,.5E-6,0
HULIANWANG DIGUI-37,2025-159C,2026-06-15T13:52:03.310176,13.24407686,.000189,86.4905,282.8364,95.8004,264.3345,0,U,64958,999,4291,.10239456E-3,.59E-6,0
HULIANWANG DIGUI-38,2025-159D,2026-06-15T13:41:12.870240,13.24407310,.00018642,86.4963,283.0226,98.0951,262.0395,0,U,64959,999,4291,.7865412E-4,.48E-6,0
HULIANWANG DIGUI-39,2025-159E,2026-06-15T13:30:18.823104,13.24407206,.00017764,86.4939,282.9411,96.9917,263.1419,0,U,64960,999,4291,.60249733E-4,.41E-6,0
ENSHI XIDA SHANQUAN,2025-160A,2026-06-15T15:01:33.688704,15.41767634,.0007698,97.3626,244.4981,200.3772,159.7169,0,U,64962,999,4917,.79470396E-3,.33663E-3,0
STARLINK-34617,2025-161A,2026-06-15T14:16:12.313344,15.75263867,.00008145,53.1577,196.9969,80.5412,279.5700,0,U,65015,999,759,.76808659E-3,.118895E-2,0
STARLINK-34627,2025-161B,2026-06-15T08:48:27.555840,15.30199184,.00010937,53.1588,200.5806,77.3143,282.7980,0,U,65016,999,5039,.67016466E-3,.19541E-3,0
STARLINK-34549,2025-161C,2026-06-15T09:27:47.199456,15.30192921,.00010679,53.1572,200.0351,91.5806,268.5317,0,U,65017,999,5040,.13385025E-3,.3606E-4,0
STARLINK-34623,2025-161D,2026-06-15T09:20:22.052832,15.30197596,.00010795,53.1567,200.7168,92.3678,267.7446,0,U,65018,999,5028,.36778841E-3,.10548E-3,0
STARLINK-34232,2025-161E,2026-06-15T09:00:36.493632,15.30205735,.00011563,53.1579,200.6313,89.0992,271.0142,0,U,65019,999,5039,.3656171E-3,.10487E-3,0
STARLINK-34772,2025-161F,2026-06-15T09:49:46.219872,15.34390972,.00009374,53.1580,199.4212,93.5672,266.5438,0,U,65020,999,5041,.37582965E-3,.12339E-3,0
STARLINK-34778,2025-161G,2026-06-15T07:40:14.031840,15.30204053,.00011802,53.1564,200.9931,84.0529,276.0606,0,U,65021,999,5026,.3362832E-3,.9615E-4,0
STARLINK-34789,2025-161H,2026-06-15T09:08:12.524064,15.30205469,.00010169,53.1570,200.6629,85.6580,274.4537,0,U,65022,999,5027,.38026701E-3,.10922E-3,0
STARLINK-34858,2025-161J,2026-06-15T08:54:33.236064,15.30219236,.00011484,53.1575,200.6034,81.8072,278.3059,0,U,65023,999,5027,.45949714E-3,.13282E-3,0
STARLINK-34773,2025-161K,2026-06-15T09:46:43.742208,15.34409214,.00011372,53.1583,199.4096,82.5558,277.5574,0,U,65024,999,5029,.34813987E-3,.11408E-3,0
STARLINK-34727,2025-161L,2026-06-15T09:25:31.925568,15.34395957,.00011247,53.1580,199.3170,86.8018,273.3113,0,U,65025,999,5032,.57773982E-3,.19191E-3,0
STARLINK-34804,2025-161M,2026-06-15T08:46:56.254368,15.30197267,.00013011,53.1586,200.5691,84.2468,275.8681,0,U,65026,999,5029,.54249127E-3,.15741E-3,0
STARLINK-34655,2025-161N,2026-06-15T09:24:55.367136,15.30191476,.00010608,53.1567,200.7286,80.0611,280.0509,0,U,65027,999,5028,.29264844E-3,.8316E-4,0
STARLINK-34807,2025-161P,2026-06-15T10:01:55.012512,15.34355183,.00011323,53.1586,199.4742,61.5755,298.5361,0,U,65028,999,5030,.5293568E-3,.17525E-3,0
STARLINK-34731,2025-161Q,2026-06-15T09:31:35.505408,15.34391029,.00010016,53.1573,199.3473,99.4931,260.6184,0,U,65029,999,5030,.45962488E-3,.1518E-3,0
STARLINK-34614,2025-161R,2026-06-15T09:18:50.756544,15.30194727,.00010041,53.1565,200.7075,93.3448,266.7668,0,U,65030,999,5028,.24642187E-3,.6945E-4,0
STARLINK-34677,2025-161S,2026-06-15T09:12:45.954144,15.30197253,.00008284,53.1566,200.6800,87.1434,272.9661,0,U,65031,999,4918,.25093029E-3,.7079E-4,0
STARLINK-34656,2025-161T,2026-06-15T09:09:43.910208,15.30191506,.0000915,53.1562,200.6668,96.2396,263.8709,0,U,65032,999,5028,.53959909E-3,.15652E-3,0
STARLINK-34610,2025-161V,2026-06-15T08:49:58.697472,15.30191904,.00011851,53.1581,200.5811,84.6692,275.4444,0,U,65034,999,4918,.42034685E-3,.12108E-3,0
STARLINK-34286,2025-161W,2026-06-15T09:40:39.534240,15.34402793,.00010754,53.1565,199.3830,84.1613,275.9513,0,U,65035,999,4920,-.35426447E-3,-.12327E-3,0
STARLINK-34770,2025-161X,2026-06-15T09:05:10.133664,15.30188297,.00009334,53.1572,200.6445,105.4921,254.6183,0,U,65036,999,4918,.12122648E-3,.3232E-4,0
